{
  "type": "FeatureCollection",
  "features": [
    {
      "type": "Feature",
      "properties": {
        "norad_id": 66802,
        "name": "STARLINK-35604",
        "group": "last-30-days",
        "lat": -20.335915158132547,
        "lon": -127.7767547327211,
        "alt_km": 307.5176562863835,
        "timestamp": "2025-12-12T03:50:51.178150+00:00",
        "meta_object_name": "STARLINK-35604",
        "meta_object_id": "2025-278M",
        "meta_epoch": "2025-12-11T14:00:01.999872",
        "meta_mean_motion": 15.90073256,
        "meta_eccentricity": 0.00019617,
        "meta_inclination": 42.998,
        "meta_ra_of_asc_node": 259.2377,
        "meta_arg_of_pericenter": 260.8686,
        "meta_mean_anomaly": 3.3507,
        "meta_ephemeris_type": 0,
        "meta_classification_type": "U",
        "meta_norad_cat_id": 66802,
        "meta_element_set_no": 999,
        "meta_rev_at_epoch": 277,
        "meta_bstar": -0.0042945792,
        "meta_mean_motion_dot": -0.01175525,
        "meta_mean_motion_ddot": 0,
        "tle_line1": "1 66802U 25278M   25345.58335648 -.01175525  00000+0 -42946-2 0  9991",
        "tle_line2": "2 66802  42.9980 259.2377 0001961 260.8686   3.3507 15.90073256  2776"
      },
      "geometry": {
        "type": "Point",
        "coordinates": [
          -127.7767547327211,
          -20.335915158132547
        ]
      }
    },
    {
      "type": "Feature",
      "properties": {
        "norad_id": 66803,
        "name": "STARLINK-35565",
        "group": "last-30-days",
        "lat": -17.442008154916,
        "lon": -124.05587369082784,
        "alt_km": 307.27817716108075,
        "timestamp": "2025-12-12T03:50:51.178159+00:00",
        "meta_object_name": "STARLINK-35565",
        "meta_object_id": "2025-278N",
        "meta_epoch": "2025-12-11T14:00:01.999872",
        "meta_mean_motion": 15.90133958,
        "meta_eccentricity": 0.00019989,
        "meta_inclination": 42.9979,
        "meta_ra_of_asc_node": 259.2264,
        "meta_arg_of_pericenter": 259.9986,
        "meta_mean_anomaly": 8.6824,
        "meta_ephemeris_type": 0,
        "meta_classification_type": "U",
        "meta_norad_cat_id": 66803,
        "meta_element_set_no": 999,
        "meta_rev_at_epoch": 286,
        "meta_bstar": -0.0043410018,
        "meta_mean_motion_dot": -0.01189901,
        "meta_mean_motion_ddot": 0,
        "tle_line1": "1 66803U 25278N   25345.58335648 -.01189901  00000+0 -43410-2 0  9992",
        "tle_line2": "2 66803  42.9979 259.2264 0001998 259.9986   8.6824 15.90133958  2868"
      },
      "geometry": {
        "type": "Point",
        "coordinates": [
          -124.05587369082784,
          -17.442008154916
        ]
      }
    },
    {
      "type": "Feature",
      "properties": {
        "norad_id": 66804,
        "name": "STARLINK-36038",
        "group": "last-30-days",
        "lat": -15.779897155197006,
        "lon": -122.01122413974825,
        "alt_km": 307.1210135879892,
        "timestamp": "2025-12-12T03:50:51.178169+00:00",
        "meta_object_name": "STARLINK-36038",
        "meta_object_id": "2025-278P",
        "meta_epoch": "2025-12-11T14:00:01.999872",
        "meta_mean_motion": 15.90161969,
        "meta_eccentricity": 0.00019573,
        "meta_inclination": 42.9981,
        "meta_ra_of_asc_node": 259.2201,
        "meta_arg_of_pericenter": 261.1428,
        "meta_mean_anomaly": 10.069,
        "meta_ephemeris_type": 0,
        "meta_classification_type": "U",
        "meta_norad_cat_id": 66804,
        "meta_element_set_no": 999,
        "meta_rev_at_epoch": 277,
        "meta_bstar": -0.0043724909,
        "meta_mean_motion_dot": -0.01198906,
        "meta_mean_motion_ddot": 0,
        "tle_line1": "1 66804U 25278P   25345.58335648 -.01198906  00000+0 -43725-2 0  9997",
        "tle_line2": "2 66804  42.9981 259.2201 0001957 261.1428  10.0690 15.90161969  2775"
      },
      "geometry": {
        "type": "Point",
        "coordinates": [
          -122.01122413974825,
          -15.779897155197006
        ]
      }
    },
    {
      "type": "Feature",
      "properties": {
        "norad_id": 66805,
        "name": "STARLINK-36049",
        "group": "last-30-days",
        "lat": -12.86195727432199,
        "lon": -118.5526125127755,
        "alt_km": 306.7641912381323,
        "timestamp": "2025-12-12T03:50:51.178179+00:00",
        "meta_object_name": "STARLINK-36049",
        "meta_object_id": "2025-278Q",
        "meta_epoch": "2025-12-11T14:00:01.999872",
        "meta_mean_motion": 15.90218071,
        "meta_eccentricity": 0.00020117,
        "meta_inclination": 42.9979,
        "meta_ra_of_asc_node": 259.2089,
        "meta_arg_of_pericenter": 262.6745,
        "meta_mean_anomaly": 12.8841,
        "meta_ephemeris_type": 0,
        "meta_classification_type": "U",
        "meta_norad_cat_id": 66805,
        "meta_element_set_no": 999,
        "meta_rev_at_epoch": 277,
        "meta_bstar": -0.0043909709,
        "meta_mean_motion_dot": -0.01206407,
        "meta_mean_motion_ddot": 0,
        "tle_line1": "1 66805U 25278Q   25345.58335648 -.01206407  00000+0 -43910-2 0  9990",
        "tle_line2": "2 66805  42.9979 259.2089 0002011 262.6745  12.8841 15.90218071  2772"
      },
      "geometry": {
        "type": "Point",
        "coordinates": [
          -118.5526125127755,
          -12.86195727432199
        ]
      }
    },
    {
      "type": "Feature",
      "properties": {
        "norad_id": 66806,
        "name": "STARLINK-36069",
        "group": "last-30-days",
        "lat": -14.502428436804081,
        "lon": -120.47834707888894,
        "alt_km": 306.9642650740798,
        "timestamp": "2025-12-12T03:50:51.178189+00:00",
        "meta_object_name": "STARLINK-36069",
        "meta_object_id": "2025-278R",
        "meta_epoch": "2025-12-11T14:00:01.999872",
        "meta_mean_motion": 15.90192099,
        "meta_eccentricity": 0.0001993,
        "meta_inclination": 42.9981,
        "meta_ra_of_asc_node": 259.2153,
        "meta_arg_of_pericenter": 261.0106,
        "meta_mean_anomaly": 12.0985,
        "meta_ephemeris_type": 0,
        "meta_classification_type": "U",
        "meta_norad_cat_id": 66806,
        "meta_element_set_no": 999,
        "meta_rev_at_epoch": 256,
        "meta_bstar": -0.0043695945,
        "meta_mean_motion_dot": -0.01199871,
        "meta_mean_motion_ddot": 0,
        "tle_line1": "1 66806U 25278R   25345.58335648 -.01199871  00000+0 -43696-2 0  9998",
        "tle_line2": "2 66806  42.9981 259.2153 0001993 261.0106  12.0985 15.90192099  2569"
      },
      "geometry": {
        "type": "Point",
        "coordinates": [
          -120.47834707888894,
          -14.502428436804081
        ]
      }
    },
    {
      "type": "Feature",
      "properties": {
        "norad_id": 66807,
        "name": "STARLINK-36000",
        "group": "last-30-days",
        "lat": -9.828887220756341,
        "lon": -115.09467941965612,
        "alt_km": 306.45317376598723,
        "timestamp": "2025-12-12T03:50:51.178201+00:00",
        "meta_object_name": "STARLINK-36000",
        "meta_object_id": "2025-278S",
        "meta_epoch": "2025-12-11T14:00:01.999872",
        "meta_mean_motion": 15.90274272,
        "meta_eccentricity": 0.00020325,
        "meta_inclination": 42.998,
        "meta_ra_of_asc_node": 259.1978,
        "meta_arg_of_pericenter": 262.1929,
        "meta_mean_anomaly": 17.8182,
        "meta_ephemeris_type": 0,
        "meta_classification_type": "U",
        "meta_norad_cat_id": 66807,
        "meta_element_set_no": 999,
        "meta_rev_at_epoch": 283,
        "meta_bstar": -0.0044111545,
        "meta_mean_motion_dot": -0.01214317,
        "meta_mean_motion_ddot": 0,
        "tle_line1": "1 66807U 25278S   25345.58335648 -.01214317  00000+0 -44112-2 0  9996",
        "tle_line2": "2 66807  42.9980 259.1978 0002032 262.1929  17.8182 15.90274272  2839"
      },
      "geometry": {
        "type": "Point",
        "coordinates": [
          -115.09467941965612,
          -9.828887220756341
        ]
      }
    },
    {
      "type": "Feature",
      "properties": {
        "norad_id": 66808,
        "name": "STARLINK-36071",
        "group": "last-30-days",
        "lat": -8.377289171567053,
        "lon": -113.47814170131515,
        "alt_km": 306.3849764880533,
        "timestamp": "2025-12-12T03:50:51.178213+00:00",
        "meta_object_name": "STARLINK-36071",
        "meta_object_id": "2025-278T",
        "meta_epoch": "2025-12-11T14:00:01.999872",
        "meta_mean_motion": 15.90302143,
        "meta_eccentricity": 0.00019376,
        "meta_inclination": 42.9981,
        "meta_ra_of_asc_node": 259.1922,
        "meta_arg_of_pericenter": 259.4675,
        "meta_mean_anomaly": 22.6548,
        "meta_ephemeris_type": 0,
        "meta_classification_type": "U",
        "meta_norad_cat_id": 66808,
        "meta_element_set_no": 999,
        "meta_rev_at_epoch": 277,
        "meta_bstar": -0.0044223603,
        "meta_mean_motion_dot": -0.01242544,
        "meta_mean_motion_ddot": 0,
        "tle_line1": "1 66808U 25278T   25345.58335648 -.01242544  00000+0 -44224-2 0  9994",
        "tle_line2": "2 66808  42.9981 259.1922 0001937 259.4675  22.6548 15.90302143  2772"
      },
      "geometry": {
        "type": "Point",
        "coordinates": [
          -113.47814170131515,
          -8.377289171567053
        ]
      }
    }
  ]
}